TRANSPORTER-17 OBJECT Z 
1 69892U 26156Z   26203.56662608  .00001084  00000+0  11262-3 0  9993
2 69892  97.7529 103.7754 0008841 101.9220 258.2990 14.91928146  2279
TRANSPORTER-17 OBJECT AA
1 69893U 26156AA  26203.57205929  .00001702  00000+0  17595-3 0  9996
2 69893  97.7540 103.7706 0007045  91.0255 269.1771 14.91401200  2277
TRANSPORTER-17 OBJECT AB
1 69894U 26156AB  26203.43634126  .00000602  00000+0  65608-4 0  9994
2 69894  97.7550 103.6431 0007302  95.8383 264.3669 14.91538816  2258
TRANSPORTER-17 OBJECT AC
1 69895U 26156AC  26203.57035744  .00000659  00000+0  71286-4 0  9992
2 69895  97.7515 103.7670 0007926  92.9291 267.2834 14.91555281  2277
TRANSPORTER-17 OBJECT AD
1 69896U 26156AD  26203.56580049  .00001087  00000+0  11264-3 0  9990
2 69896  97.7528 103.7764 0009184 103.0286 257.1958 14.92007733  2272
TRANSPORTER-17 OBJECT AE
1 69897U 26156AE  26203.51167020  .00001113  00000+0  11894-3 0  9995
2 69897  97.7569 103.6997 0003665  96.5616 263.6020 14.90733286  2264
TRANSPORTER-17 OBJECT AF
1 69898U 26156AF  26203.57124500  .00000577  00000+0  63191-4 0  9999
2 69898  97.7547 103.7731 0007106  94.0003 266.2028 14.91467107  2270
TRANSPORTER-17 OBJECT AG
1 69899U 26156AG  26203.50705548  .00000652  00000+0  71260-4 0  9990
2 69899  97.7511 103.6962 0006670  83.1476 277.0502 14.91183503  2266
TRANSPORTER-17 OBJECT AH
1 69900U 26156AH  26203.50718635  .00001222  00000+0  12861-3 0  9999
2 69900  97.7565 103.7066 0006112  87.7480 272.4438 14.91177980  2269
TRANSPORTER-17 OBJECT AJ
1 69901U 26156AJ  26203.50805340  .00000590  00000+0  65112-4 0  9995
2 69901  97.7525 103.6975 0006218  81.9752 278.2171 14.91083264  2268
TRANSPORTER-17 OBJECT AK
1 69902U 26156AK  26203.50890271  .00001240  00000+0  13095-3 0  9998
2 69902  97.7491 103.6907 0005797  79.6068 280.5803 14.91006202  2266
TRANSPORTER-17 OBJECT AL
1 69903U 26156AL  26203.50904213  .00001149  00000+0  12180-3 0  9993
2 69903  97.7576 103.7055 0005024  88.1735 272.0059 14.90990957  2262
TRANSPORTER-17 OBJECT AM
1 69904U 26156AM  26203.50299006  .00000857  00000+0  90949-4 0  9996
2 69904  97.7511 103.7003 0007789  94.8225 265.3883 14.91585270  2150
TRANSPORTER-17 OBJECT AN
1 69905U 26156AN  26203.50864968  .00002831  00000+0  29161-3 0  9993
2 69905  97.7564 103.7051 0005296  86.6516 273.5308 14.91045651  2264
TRANSPORTER-17 OBJECT AP
1 69906U 26156AP  26203.57653891  .00000757  00000+0  82265-4 0  9992
2 69906  97.7474 103.7533 0005595  76.4611 283.7230 14.90949776  2273
TRANSPORTER-17 OBJECT AQ
1 69907U 26156AQ  26203.57664120  .00000389  00000+0  44953-4 0  9993
2 69907  97.7498 103.7572 0005236  80.5418 279.6392 14.90935850  2277
TRANSPORTER-17 OBJECT AR
1 69908U 26156AR  26203.57123329  .00001019  00000+0  10735-3 0  9996
2 69908  97.7518 103.7669 0007561  91.1106 269.0979 14.91474119  2274
TRANSPORTER-17 OBJECT AS
1 69909U 26156AS  26203.57196770  .00000694  00000+0  75001-4 0  9993
2 69909  97.7537 103.7701 0007057  90.9679 269.2348 14.91398420  2277
TRANSPORTER-17 OBJECT AT
1 69910U 26156AT  26203.57650574  .00002999  00000+0  30903-3 0  9993
2 69910  97.7544 103.7659 0004874  89.2103 270.9674 14.90975623  2272
TRANSPORTER-17 OBJECT AU
1 69911U 26156AU  26203.57910668  .00000882  00000+0  95495-4 0  9994
2 69911  97.7537 103.7605 0003724  86.0068 274.1576 14.90699819  2271
TRANSPORTER-17 OBJECT AV
1 69912U 26156AV  26203.44372515  .00001183  00000+0  12579-3 0  9990
2 69912  97.7554 103.6328 0004174  89.1736 270.9960 14.90814289  2257
TRANSPORTER-17 OBJECT AW
1 69913U 26156AW  26203.44286527  .00001001  00000+0  10710-3 0  9992
2 69913  97.7581 103.6381 0004355  97.2130 262.9584 14.90897863  2258
TRANSPORTER-17 OBJECT AX
1 69914U 26156AX  26203.51151430  .00000808  00000+0  87905-4 0  9990
2 69914  97.7559 103.6995 0004434  75.9394 284.2317 14.90745033  2261
TRANSPORTER-17 OBJECT AY
1 69915U 26156AY  26203.56883783  .00001006  00000+0  10548-3 0  9998
2 69915  97.7512 103.7683 0008370  96.9389 263.2783 14.91709023  2271
TRANSPORTER-17 OBJECT AZ
1 69916U 26156AZ  26203.57743480  .00001778  00000+0  18598-3 0  9998
2 69916  97.7518 103.7595 0004591  84.1070 276.0672 14.90875021  2277
TRANSPORTER-17 OBJECT BA
1 69917U 26156BA  26203.49356652  .00001345  00000+0  13628-3 0  9990
2 69917  97.7573 103.7250 0011207 109.1024 251.1409 14.92519984  2262
TRANSPORTER-17 OBJECT BB
1 69918U 26156BB  26203.56846583  .00000554  00000+0  60568-4 0  9993
2 69918  97.7551 103.7780 0007890 100.7912 259.4196 14.91739630  2279
TRANSPORTER-17 OBJECT BC
1 69919U 26156BC  26203.56715495  .00000562  00000+0  61157-4 0  9995
2 69919  97.7518 103.7726 0008719 100.6189 259.6013 14.91868378  2271
TRANSPORTER-17 OBJECT BD
1 69920U 26156BD  26203.49918294  .00001589  00000+0  16229-3 0  9990
2 69920  97.7523 103.7088 0009101 101.2075 259.0167 14.91969693  2262
