OBJECT_NAME,OBJECT_ID,EPOCH,MEAN_MOTION,ECCENTRICITY,INCLINATION,RA_OF_ASC_NODE,ARG_OF_PERICENTER,MEAN_ANOMALY,EPHEMERIS_TYPE,CLASSIFICATION_TYPE,NORAD_CAT_ID,ELEMENT_SET_NO,REV_AT_EPOCH,BSTAR,MEAN_MOTION_DOT,MEAN_MOTION_DDOT
TRANSPORTER-17 OBJECT Z,2026-156Z,2026-07-22T13:35:56.493312,14.91928146,.00088414,97.7529,103.7754,101.9220,258.2990,0,U,69892,999,227,.11262455E-3,.1084E-4,0
TRANSPORTER-17 OBJECT AA,2026-156AA,2026-07-22T13:43:45.922656,14.91401200,.00070458,97.7540,103.7706,91.0255,269.1771,0,U,69893,999,227,.17594752E-3,.1702E-4,0
TRANSPORTER-17 OBJECT AB,2026-156AB,2026-07-22T10:28:19.884864,14.91538816,.00073029,97.7550,103.6431,95.8383,264.3669,0,U,69894,999,225,.65607853E-4,.602E-5,0
TRANSPORTER-17 OBJECT AC,2026-156AC,2026-07-22T13:41:18.882816,14.91555281,.00079267,97.7515,103.7670,92.9291,267.2834,0,U,69895,999,227,.71285748E-4,.659E-5,0
TRANSPORTER-17 OBJECT AD,2026-156AD,2026-07-22T13:34:45.162336,14.92007733,.00091844,97.7528,103.7764,103.0286,257.1958,0,U,69896,999,227,.11263729E-3,.1087E-4,0
TRANSPORTER-17 OBJECT AE,2026-156AE,2026-07-22T12:16:48.305280,14.90733286,.00036654,97.7569,103.6997,96.5616,263.6020,0,U,69897,999,226,.1189416E-3,.1113E-4,0
TRANSPORTER-17 OBJECT AF,2026-156AF,2026-07-22T13:42:35.568000,14.91467107,.00071067,97.7547,103.7731,94.0003,266.2028,0,U,69898,999,227,.63191491E-4,.577E-5,0
TRANSPORTER-17 OBJECT AG,2026-156AG,2026-07-22T12:10:09.593472,14.91183503,.00066706,97.7511,103.6962,83.1476,277.0502,0,U,69899,999,226,.71260244E-4,.652E-5,0
TRANSPORTER-17 OBJECT AH,2026-156AH,2026-07-22T12:10:20.900640,14.91177980,.00061121,97.7565,103.7066,87.7480,272.4438,0,U,69900,999,226,.12861432E-3,.1222E-4,0
TRANSPORTER-17 OBJECT AJ,2026-156AJ,2026-07-22T12:11:35.813760,14.91083264,.00062188,97.7525,103.6975,81.9752,278.2171,0,U,69901,999,226,.65112132E-4,.59E-5,0
TRANSPORTER-17 OBJECT AK,2026-156AK,2026-07-22T12:12:49.194144,14.91006202,.00057978,97.7491,103.6907,79.6068,280.5803,0,U,69902,999,226,.13095009E-3,.124E-4,0
TRANSPORTER-17 OBJECT AL,2026-156AL,2026-07-22T12:13:01.240032,14.90990957,.0005024,97.7576,103.7055,88.1735,272.0059,0,U,69903,999,226,.12180426E-3,.1149E-4,0
TRANSPORTER-17 OBJECT AM,2026-156AM,2026-07-22T12:04:18.341184,14.91585270,.00077898,97.7511,103.7003,94.8225,265.3883,0,U,69904,999,215,.90949157E-4,.857E-5,0
TRANSPORTER-17 OBJECT AN,2026-156AN,2026-07-22T12:12:27.332352,14.91045651,.00052965,97.7564,103.7051,86.6516,273.5308,0,U,69905,999,226,.29161084E-3,.2831E-4,0
TRANSPORTER-17 OBJECT AP,2026-156AP,2026-07-22T13:50:12.961824,14.90949776,.00055955,97.7474,103.7533,76.4611,283.7230,0,U,69906,999,227,.82265124E-4,.757E-5,0
TRANSPORTER-17 OBJECT AQ,2026-156AQ,2026-07-22T13:50:21.799680,14.90935850,.00052362,97.7498,103.7572,80.5418,279.6392,0,U,69907,999,227,.44952714E-4,.389E-5,0
TRANSPORTER-17 OBJECT AR,2026-156AR,2026-07-22T13:42:34.556256,14.91474119,.00075616,97.7518,103.7669,91.1106,269.0979,0,U,69908,999,227,.10735157E-3,.1019E-4,0
TRANSPORTER-17 OBJECT AS,2026-156AS,2026-07-22T13:43:38.009280,14.91398420,.00070577,97.7537,103.7701,90.9679,269.2348,0,U,69909,999,227,.7500083E-4,.694E-5,0
TRANSPORTER-17 OBJECT AT,2026-156AT,2026-07-22T13:50:10.095936,14.90975623,.00048742,97.7544,103.7659,89.2103,270.9674,0,U,69910,999,227,.30903305E-3,.2999E-4,0
TRANSPORTER-17 OBJECT AU,2026-156AU,2026-07-22T13:53:54.817152,14.90699819,.00037244,97.7537,103.7605,86.0068,274.1576,0,U,69911,999,227,.95494713E-4,.882E-5,0
TRANSPORTER-17 OBJECT AV,2026-156AV,2026-07-22T10:38:57.852960,14.90814289,.00041741,97.7554,103.6328,89.1736,270.9960,0,U,69912,999,225,.12579191E-3,.1183E-4,0
TRANSPORTER-17 OBJECT AW,2026-156AW,2026-07-22T10:37:43.559328,14.90897863,.00043553,97.7581,103.6381,97.2130,262.9584,0,U,69913,999,225,.10710114E-3,.1001E-4,0
TRANSPORTER-17 OBJECT AX,2026-156AX,2026-07-22T12:16:34.835520,14.90745033,.00044345,97.7559,103.6995,75.9394,284.2317,0,U,69914,999,226,.87905094E-4,.808E-5,0
TRANSPORTER-17 OBJECT AY,2026-156AY,2026-07-22T13:39:07.588512,14.91709023,.00083707,97.7512,103.7683,96.9389,263.2783,0,U,69915,999,227,.10548492E-3,.1006E-4,0
TRANSPORTER-17 OBJECT AZ,2026-156AZ,2026-07-22T13:51:30.366720,14.90875021,.00045916,97.7518,103.7595,84.1070,276.0672,0,U,69916,999,227,.18597759E-3,.1778E-4,0
TRANSPORTER-17 OBJECT BA,2026-156BA,2026-07-22T11:50:44.147328,14.92519984,.00112071,97.7573,103.7250,109.1024,251.1409,0,U,69917,999,226,.13628293E-3,.1345E-4,0
TRANSPORTER-17 OBJECT BB,2026-156BB,2026-07-22T13:38:35.447712,14.91739630,.00078901,97.7551,103.7780,100.7912,259.4196,0,U,69918,999,227,.60568084E-4,.554E-5,0
TRANSPORTER-17 OBJECT BC,2026-156BC,2026-07-22T13:36:42.187680,14.91868378,.00087194,97.7518,103.7726,100.6189,259.6013,0,U,69919,999,227,.61157183E-4,.562E-5,0
TRANSPORTER-17 OBJECT BD,2026-156BD,2026-07-22T11:58:49.406016,14.91969693,.00091015,97.7523,103.7088,101.2075,259.0167,0,U,69920,999,226,.16229084E-3,.1589E-4,0
